ONEWEB-0558             
1 56059U 23043P   25258.58899790  .00000012  00000+0 -34159-5 0  9994
2 56059  87.9202 298.7856 0001591 104.6874 255.4436 13.21824588121966
ONEWEB-0559             
1 56060U 23043Q   25258.57796068 -.00000030  00000+0 -10318-3 0  9999
2 56060  87.9202 298.7803 0001543  91.4359 268.6951 13.21826890121975
ONEWEB-0566             
1 56061U 23043R   25258.57164914  .00000004  00000+0 -21726-4 0  9995
2 56061  87.9204 298.7793 0001599  98.6807 261.4508 13.21826995121957
ONEWEB-0568             
1 56062U 23043S   25258.58592291  .00000064  00000+0  13253-3 0  9990
2 56062  87.8983 283.4953 0002219  95.4275 264.7109 13.16594328122842
ONEWEB-0574             
1 56063U 23043T   25258.56535511 -.00000012  00000+0 -60789-4 0  9993
2 56063  87.9205 298.7689 0002009  89.2606 270.8759 13.21825803121997
ONEWEB-0575             
1 56064U 23043U   25258.57958024 -.00000003  00000+0 -40258-4 0  9992
2 56064  87.8978 283.5007 0002300  85.3838 274.7556 13.16594228122838
ONEWEB-0576             
1 56065U 23043V   25258.56058730 -.00000049  00000+0 -16304-3 0  9991
2 56065  87.8990 283.4994 0002144  92.8110 267.3266 13.16594189122820
ONEWEB-0577             
1 56066U 23043W   25258.56692102 -.00000009  00000+0 -56499-4 0  9995
2 56066  87.8986 283.4992 0002402  80.2747 279.8655 13.16593726122857
ONEWEB-0578             
1 56067U 23043X   25258.55273384 -.00000009  00000+0 -52817-4 0  9992
2 56067  87.9199 298.7813 0002153  97.4494 262.6884 13.21826615121954
ONEWEB-0579             
1 56068U 23043Y   25258.54327375  .00000036  00000+0  56444-4 0  9990
2 56068  87.9203 298.7699 0001685  91.8139 268.3188 13.21825365121968
ONEWEB-0581             
1 56069U 23043Z   25258.57324452 -.00000027  00000+0 -10458-3 0  9993
2 56069  87.8969 283.5172 0002024  79.9600 280.1759 13.16595588122820
ONEWEB-0609             
1 56070U 23043AA  25258.54075872  .00000068  00000+0  14600-3 0  9997
2 56070  87.9033 314.0216 0001852  99.4123 260.7217 13.15549838120321
ONEWEB-0613             
1 56071U 23043AB  25258.53598534  .00000137  00000+0  33024-3 0  9990
2 56071  87.9033 314.0365 0001647  94.0335 266.0984 13.15549538120322
ONEWEB-0630             
1 56072U 23043AC  25258.60729522  .00000087  00000+0  19616-3 0  9997
2 56072  87.9026 313.9954 0001544  98.5943 261.5362 13.15549295120327
ONEWEB-0632             
1 56073U 23043AD  25258.60253078  .00000120  00000+0  28388-3 0  9990
2 56073  87.9024 314.0164 0001860  90.5860 269.5483 13.15549808120324
ONEWEB-0633             
1 56074U 23043AE  25258.59619751  .00000081  00000+0  18137-3 0  9990
2 56074  87.9023 313.9813 0001536 106.6943 253.4356 13.15550134120307
